NUSAT-1 (FRESCO)        
1 41557U 16033B   22261.56345383  .00016133  00000+0  45085-3 0  9993
2 41557  97.3897 359.5535 0011166  50.1328  47.7149 15.36711796351676
BEESAT-4                
1 41619U 16040W   22261.37530074  .00014675  00000+0  45649-3 0  9997
2 41619  97.2077 309.6142 0010384 137.4580 222.7469 15.33356914334950
CAS-2T & KS-1Q          
1 41847U 16066G   22261.19054046  .00000453  00000+0  79000-4 0  9996
2 41847  98.5424 325.7288 0362251 292.5263  63.7961 14.38723964307684
NAYIF-1 (EO-88)         
1 42017U 17008BX  22260.68828058  .00017551  00000+0  48258-3 0  9995
2 42017  97.2597 325.5840 0003102 268.8155  91.2735 15.37253363311238
ZHUHAI-1 02 (CAS-4B)    
1 42759U 17034B   22261.25834065  .00005271  00000+0  30997-3 0  9993
2 42759  43.0164 180.9458 0008422 159.3180 336.4198 15.12480192290407
ZHUHAI-1 01 (CAS-4A)    
1 42761U 17034D   22261.29034598  .00005045  00000+0  29658-3 0  9994
2 42761  43.0170 179.4908 0008868 163.0052 341.0842 15.12562038290413
MAX VALIER SAT          
1 42778U 17036P   22260.88023129  .00007785  00000+0  28493-3 0  9995
2 42778  97.1977 298.8418 0010322   8.4662 351.6750 15.28255751291015
RADFXSAT (FOX-1B)       
1 43017U 17073E   22260.68750539  .00002783  00000+0  21242-3 0  9991
2 43017  97.6607 151.0877 0245148 245.5250 112.0220 14.82010773260771
FOX-1D (AO-92)          
1 43137U 18004AC  22260.76224004  .00010327  00000+0  34775-3 0  9999
2 43137  97.3615 335.1497 0008143  44.3736 315.8156 15.30923639260464
DIWATA-2B               
1 43678U 18084H   22261.38735912  .00000729  00000+0  77113-4 0  9990
2 43678  97.9843  35.8173 0009661 346.8193  13.2798 14.92302063211715
ES'HAIL 2               
1 43700U 18090A   22260.86229962  .00000138  00000+0  00000+0 0  9998
2 43700   0.0116 128.5433 0002502  90.6558 113.8037  1.00274670 13950
FOX-1CLIFF (AO-95)      
1 43770U 18099N   22260.72187739  .00002693  00000+0  23988-3 0  9996
2 43770  97.6120 324.6588 0012935 331.5998  28.4518 14.96804066206811
ITASAT 1                
1 43786U 18099AE  22261.44297160  .00001821  00000+0  16336-3 0  9994
2 43786  97.6145 326.3283 0013803 319.7404  40.2795 14.96900421206968
JY1SAT (JO-97)          
1 43803U 18099AX  22261.16020326  .00001786  00000+0  15802-3 0  9998
2 43803  97.6111 325.8385 0013736 320.6412  39.3811 14.97482879206942
UWE-4                   
1 43880U 18111E   22261.29318725  .00003629  00000+0  30711-3 0  9999
2 43880  97.6592 165.9662 0012435  20.5018 339.6701 14.98589967201603
NEXUS (FO-99)           
1 43937U 19003F   22261.07143627  .00012922  00000+0  40962-3 0  9991
2 43937  97.1250 290.9056 0019934 176.4421 183.6967 15.32635692204158
PSAT2 (NO-104)          
1 44354U 19036R   22261.32412188  .00099100 -42807-5  74038-3 0  9992
2 44354  28.5240 250.0946 0195809 304.5867  53.6404 15.49776396179044
JAISAT-1                
1 44419U 19038F   22260.85846105  .00008728  00000+0  42364-3 0  9998
2 44419  97.6454 231.8486 0019256 165.4615 194.7176 15.18562556177073
DUCHIFAT-3              
1 44854U 19089C   22261.28471733  .00004275  00000+0  32904-3 0  9998
2 44854  36.9661 269.7932 0008894 259.1768 100.7975 15.01601556151896
CAS-6 (TIANQIN 1)       
1 44881U 19093C   22261.29440163  .00000653  00000+0  89204-4 0  9999
2 44881  97.8880 339.1541 0013715 242.3451 117.6373 14.81816905148522
RS-44 & BREEZE-KM R/B   
1 44909U 19096E   22261.46292968  .00000019  00000+0  23271-4 0  9998
2 44909  82.5251 168.4987 0218347 102.1751 260.3899 12.79714937127452
ORBITAL FACTORY 2 (OF-2)
1 45113U 19071C   22261.16654949  .00030516  00000+0  54136-3 0  9995
2 45113  51.6375 321.7544 0007311 143.9744 216.1739 15.49937427147735
HUSKYSAT-1 (HO-107)     
1 45119U 19071J   22260.40442403  .00025280  00000+0  47538-3 0  9997
2 45119  51.6378 326.3835 0007663 137.7183 222.4397 15.48375267147597
BY70-2                  
1 45857U 20042B   22261.43805173  .00007976  00000+0  10399-2 0  9993
2 45857  97.9510 337.4319 0011212 168.1064 192.0399 14.80782308119213
SALSAT                  
1 46495U 20068K   22260.79942573  .00003027  00000+0  21814-3 0  9992
2 46495  97.7333 202.1696 0015677 329.2263  30.8042 15.04849253108075
BY70-3                  
1 46839U 20079N   22261.32425124  .00031416  00000+0  64976-3 0  9993
2 46839  97.1901 332.3896 0004522  10.6695  54.1838 15.45735310104573
RADFXSAT-2 (AO-109)     
1 47311U 21002C   22260.59805916  .00008959  00000+0  34498-3 0  9997
2 47311  60.6865  15.0483 0032516  38.8485 321.4932 15.26593301 92520
UVSQ-SAT                
1 47438U 21006AB  22261.14086448  .00005469  00000+0  28297-3 0  9997
2 47438  97.4282 318.2592 0010367 318.8924  41.1527 15.16603551 91320
DIY-1 (ARDUIQUBE)       
1 47963U 21022AH  22260.70281170  .00015374  00000+0  80175-3 0  9997
2 47963  97.5204 161.0987 0016308 165.4946 194.6757 15.15934670 80911
XW-3 (CAS-9)            
1 50466U 21131B   22261.44709500  .00000170  00000+0  70359-4 0  9996
2 50466  98.5754 338.6359 0003958 218.4028 141.6878 14.38525424 38282
TEVEL-3                 
1 50988U 22002E   22261.29667660  .00008898  00000+0  47282-3 0  9999
2 50988  97.4732 326.7528 0010942 102.1054 323.2284 15.15474573 37473
TEVEL-8                 
1 50989U 22002F   22261.30494123  .00008970  00000+0  47729-3 0  9991
2 50989  97.4749 326.7899 0011197 102.0007 323.0232 15.15421641 37472
TEVEL-5                 
1 50998U 22002Q   22261.28863362  .00008984  00000+0  47045-3 0  9999
2 50998  97.4730 326.8941 0012408  97.9306 332.5857 15.15975584 37480
TEVEL-6                 
1 50999U 22002R   22261.28835741  .00008997  00000+0  47107-3 0  9993
2 50999  97.4724 326.8907 0012341  98.2539 334.1399 15.15980984 37483
TEVEL-1                 
1 51013U 22002AF  22261.30040551  .00008926  00000+0  47464-3 0  9999
2 51013  97.4731 326.7322 0010942 102.4426 322.7656 15.15447971 37479
TEVEL-7                 
1 51062U 22002CG  22261.30699582  .00008970  00000+0  47740-3 0  9993
2 51062  97.4751 326.7778 0011053 100.5428 325.6512 15.15414399 37476
TEVEL-4                 
1 51063U 22002CH  22261.30776521  .00008927  00000+0  47528-3 0  9999
2 51063  97.4745 326.7729 0011099 101.4378 323.4575 15.15403776 37472
TEVEL-2                 
1 51069U 22002CP  22261.29811428  .00008932  00000+0  47470-3 0  9991
2 51069  97.4740 326.7401 0011073 103.0696 322.1713 15.15467903 37475
YUZGU 9 (RS3S)          
1 53308U 98067TT  22261.33764153  .00051423  00000+0  77178-3 0  9991
2 53308  51.6395 234.2627 0001273 166.0161 194.0866 15.54384973  9181
YUZGU 7 (RS1S)          
1 53309U 98067TU  22261.39957803  .00059981  00000+0  89310-3 0  9992
2 53309  51.6391 233.9248 0000912 206.9753 153.1190 15.54537064  9146
YUZGU 11 (RS5S)         
1 53310U 98067TV  22261.33732496  .00052478  00000+0  78728-3 0  9992
2 53310  51.6395 234.2614 0000674 199.5306 160.5659 15.54388173  9168
YUZGU 12 (RS6S)         
1 53311U 98067TW  22261.39528515  .00053390  00000+0  79139-3 0  9995
2 53311  51.6390 233.8956 0001673 152.6018 207.5061 15.54709427  9199
TSIOLKOVSKY-RYAZAN 1 (*)
1 53312U 98067TX  22261.39771144  .00055656  00000+0  82941-3 0  9996
2 53312  51.6395 233.9135 0000856 225.5541 134.5380 15.54545599  9133
TSIOLKOVSKY-RYAZAN 2 (*)
1 53313U 98067TY  22261.39612282  .00055990  00000+0  83266-3 0  9996
2 53313  51.6394 233.9033 0000358 217.5158 142.5808 15.54599398  9187
YUZGU 10 (RS4S)         
1 53321U 98067TZ  22261.33786676  .00053907  00000+0  80695-3 0  9997
2 53321  51.6398 234.2666 0000992 174.6335 185.4667 15.54436576  9176
RS29S (SXC3-2110 CYCLO*)
1 53373U 22096D   22261.36396152  .00011373  00000+0  45809-3 0  9991
2 53373  97.4318 162.5321 0003538  65.3840  73.1142 15.25014808  6109
RS32S (SXC3-212 MONITO*)
1 53374U 22096E   22261.36204214  .00011552  00000+0  46367-3 0  9998
2 53374  97.4310 162.5368 0003303  60.2516  83.2430 15.25128607  6102
RS34S (SXC3-218 KUZBAS*)
1 53375U 22096F   22261.36148843  .00009810  00000+0  39494-3 0  9991
2 53375  97.4313 162.5356 0003354  59.8386  79.8765 15.25072684  6103
RS23S (SXC3-21 UTMN)    
1 53376U 22096G   22261.42037515  .00009518  00000+0  38308-3 0  9990
2 53376  97.4311 162.5965 0003327  57.9387  49.5960 15.25089908  6117
RS28S (SXC3-214 MIET-A*)
1 53377U 22096H   22261.42018924  .00009441  00000+0  37956-3 0  9997
2 53377  97.4311 162.5979 0003264  58.7927  52.1603 15.25129696  6115
RS26S (KAI-1)           
1 53378U 22096J   22261.35918074  .00008424  00000+0  33921-3 0  9993
2 53378  97.4312 162.5381 0003045  53.9462  85.2371 15.25113703  6102
RS19S (SXC3-219 ISOI)   
1 53381U 22096M   22261.34741314  .00009731  00000+0  38604-3 0  9992
2 53381  97.4318 162.5525 0003032 338.8479 156.2841 15.25570670  6102
RS21S (CUBESX-HSE-2)    
1 53383U 22096P   22261.41024965  .00009333  00000+0  36982-3 0  9993
2 53383  97.4313 162.6177 0003220 335.1804 153.1648 15.25620760  6112
RS30S (SXC3-217 SIREN)  
1 53384U 22096Q   22261.40971553  .00008860  00000+0  35128-3 0  9992
2 53384  97.4318 162.6178 0003175 333.5607 153.8744 15.25616530  6115
RS20S (GEOSCAN-EDELVEIS)
1 53385U 22096R   22261.40156391  .00011365  00000+0  44588-3 0  9992
2 53385  97.4311 162.6224 0003674 334.7724 135.3645 15.25896479  6148
RS33S (SXC3-215 VIZARD) 
1 53386U 22096S   22261.33494135  .00014242  00000+0  55235-3 0  9994
2 53386  97.4312 162.5703 0004328 330.8230 169.5236 15.26222988  6129
CUTE-1 (CO-55)          
1 27844U 03031E   22261.48605388  .00000218  00000+0  11709-3 0  9998
2 27844  98.6813 267.7767 0009603 186.1148 173.9914 14.22494537997135
CUBESAT XI-IV (CO-57)   
1 27848U 03031J   22261.47816977  .00000177  00000+0  99610-4 0  9991
2 27848  98.6855 268.2686 0009246 200.9178 159.1623 14.22045889996934
CUBESAT XI-V            
1 28895U 05043F   22260.89782585  .00000990  00000+0  19576-3 0  9996
2 28895  98.1189  30.9199 0016074 206.4327 153.6057 14.64476967900946
